{
"type": "FeatureCollection",
"name": "C:\\Users\\TierraSYNC\\Downloads\\_Flood_Index_AI\\Assets\\NGA_TRMM_IDF.geojson",
"crs": { "type": "name", "properties": { "name": "urn:ogc:def:crs:OGC:1.3:CRS84" } },
"features": [
{ "type": "Feature", "properties": { "LAYER": "TRMM Stations", "GM_TYPE": "Unknown Point Feature", "Station": "Abakaliki (Abk)", "Name": "Abakaliki", "Abbrev": "Abk", "LGA": "Abakaliki", "STATE_low": "Ebonyi", "ECREEE": "Transitional equatorial", "ECREEE2": 6, "KOPPEN": "Tropical Savannah", "KOPPEN2": "Aw", "OYEBANDE": "IVa", "a_2yr_": "118.01", "a_5yr_": "151.48", "a_10yr_": "176.14", "a_25yr_": "210.47", "a_50yr_": "238.45", "a_100yr_": "268.53", "Theta": "0.776", "Eta": "0.983", "L1": "126.74", "L2": "20.67", "L3": "4.33", "Kappa_shap": "0.061", "Lambda_sca": "26.53", "Psi_locati": "4.07", "STATE": "EBONYI" }, "geometry": { "type": "Point", "coordinates": [ 8.14, 6.3 ] } },
{ "type": "Feature", "properties": { "LAYER": "TRMM Stations", "GM_TYPE": "Unknown Point Feature", "Station": "Abeokuta (Abe)", "Name": "Abeokuta", "Abbrev": "Abe", "LGA": "Abeokuta South", "STATE_low": "Ogun", "ECREEE": "Transitional equatorial", "ECREEE2": 6, "KOPPEN": "Tropical Savannah", "KOPPEN2": "Aw", "OYEBANDE": "III", "a_2yr_": "87.63", "a_5yr_": "111.69", "a_10yr_": "129.42", "a_25yr_": "154.11", "a_50yr_": "174.22", "a_100yr_": "195.85", "Theta": "0.561", "Eta": "0.924", "L1": "93.91", "L2": "14.86", "L3": "2.22", "Kappa_shap": "-0.032", "Lambda_sca": "19.07", "Psi_locati": "4.22", "STATE": "OGUN" }, "geometry": { "type": "Point", "coordinates": [ 3.33, 7.17 ] } },
{ "type": "Feature", "properties": { "LAYER": "TRMM Stations", "GM_TYPE": "Unknown Point Feature", "Station": "Abuja (Abj)", "Name": "Abuja", "Abbrev": "Abj", "LGA": "AMAC", "STATE_low": "FCT", "ECREEE": "Transitional tropical", "ECREEE2": 5, "KOPPEN": "Tropical Savannah", "KOPPEN2": "Aw", "OYEBANDE": "VI", "a_2yr_": "95.52", "a_5yr_": "121.51", "a_10yr_": "140.66", "a_25yr_": "167.32", "a_50yr_": "189.04", "a_100yr_": "212.4", "Theta": "0.531", "Eta": "0.952", "L1": "102.3", "L2": "16.05", "L3": "3.67", "Kappa_shap": "0.09", "Lambda_sca": "20.6", "Psi_locati": "4.26", "STATE": "FCT" }, "geometry": { "type": "Point", "coordinates": [ 7.26, 9.01 ] } },
{ "type": "Feature", "properties": { "LAYER": "TRMM Stations", "GM_TYPE": "Unknown Point Feature", "Station": "Ado Ekiti (Ado)", "Name": "Ado Ekiti", "Abbrev": "Ado", "LGA": "Ado-Ekiti", "STATE_low": "Ekiti", "ECREEE": "Transitional equatorial", "ECREEE2": 6, "KOPPEN": "Tropical Savannah", "KOPPEN2": "Aw", "OYEBANDE": "IVa", "a_2yr_": "84.91", "a_5yr_": "106.14", "a_10yr_": "121.78", "a_25yr_": "143.56", "a_50yr_": "161.3", "a_100yr_": "180.38", "Theta": "0.962", "Eta": "0.961", "L1": "90.45", "L2": "13.11", "L3": "0.84", "Kappa_shap": "-0.173", "Lambda_sca": "16.83", "Psi_locati": "4.67", "STATE": "EKITI" }, "geometry": { "type": "Point", "coordinates": [ 5.2, 7.65 ] } },
{ "type": "Feature", "properties": { "LAYER": "TRMM Stations", "GM_TYPE": "Unknown Point Feature", "Station": "Akure (Akr)", "Name": "Akure", "Abbrev": "Akr", "LGA": "Akure North", "STATE_low": "Ondo", "ECREEE": "Transitional equatorial", "ECREEE2": 6, "KOPPEN": "Tropical Savannah", "KOPPEN2": "Aw", "OYEBANDE": "IVa", "a_2yr_": "99", "a_5yr_": "118.89", "a_10yr_": "133.54", "a_25yr_": "153.94", "a_50yr_": "170.56", "a_100yr_": "188.43", "Theta": "0.607", "Eta": "0.987", "L1": "104.19", "L2": "12.28", "L3": "-0.51", "Kappa_shap": "-0.36", "Lambda_sca": "15.76", "Psi_locati": "5.91", "STATE": "ONDO" }, "geometry": { "type": "Point", "coordinates": [ 5.3, 7.25 ] } },
{ "type": "Feature", "properties": { "LAYER": "TRMM Stations", "GM_TYPE": "Unknown Point Feature", "Station": "Ankpa (Ank)", "Name": "Ankpa", "Abbrev": "Ank", "LGA": "Ankpa", "STATE_low": "Kogi", "ECREEE": "Transitional tropical", "ECREEE2": 5, "KOPPEN": "Tropical Savannah", "KOPPEN2": "Aw", "OYEBANDE": "IVa", "a_2yr_": "77.31", "a_5yr_": "100.85", "a_10yr_": "118.2", "a_25yr_": "142.35", "a_50yr_": "162.03", "a_100yr_": "183.19", "Theta": "0.558", "Eta": "0.976", "L1": "83.45", "L2": "14.54", "L3": "3.05", "Kappa_shap": "0.061", "Lambda_sca": "18.66", "Psi_locati": "3.77", "STATE": "KOGI" }, "geometry": { "type": "Point", "coordinates": [ 7.63, 7.4 ] } },
{ "type": "Feature", "properties": { "LAYER": "TRMM Stations", "GM_TYPE": "Unknown Point Feature", "Station": "Azare (Aza)", "Name": "Azare", "Abbrev": "Aza", "LGA": "Katagum", "STATE_low": "Bauchi", "ECREEE": "Semiarid tropical", "ECREEE2": 3, "KOPPEN": "Hot-Arid Plains", "KOPPEN2": "BSh", "OYEBANDE": "VIII", "a_2yr_": "89.48", "a_5yr_": "124.31", "a_10yr_": "149.98", "a_25yr_": "185.71", "a_50yr_": "214.82", "a_100yr_": "246.13", "Theta": "0.97", "Eta": "0.984", "L1": "98.57", "L2": "21.51", "L3": "3.92", "Kappa_shap": "0.019", "Lambda_sca": "27.61", "Psi_locati": "2.87", "STATE": "BAUCHI" }, "geometry": { "type": "Point", "coordinates": [ 10.19, 11.68 ] } },
{ "type": "Feature", "properties": { "LAYER": "TRMM Stations", "GM_TYPE": "Unknown Point Feature", "Station": "Babana (Bab)", "Name": "Babana", "Abbrev": "Bab", "LGA": "Borgu", "STATE_low": "Niger", "ECREEE": "Transitional tropical", "ECREEE2": 5, "KOPPEN": "Tropical Savannah", "KOPPEN2": "Aw", "OYEBANDE": "VIIa", "a_2yr_": "105.57", "a_5yr_": "130.57", "a_10yr_": "148.99", "a_25yr_": "174.64", "a_50yr_": "195.54", "a_100yr_": "218.01", "Theta": "0.99", "Eta": "0.99", "L1": "112.09", "L2": "15.44", "L3": "2.61", "Kappa_shap": "-0.001", "Lambda_sca": "19.82", "Psi_locati": "4.95", "STATE": "NIGER" }, "geometry": { "type": "Point", "coordinates": [ 3.82, 10.42 ] } },
{ "type": "Feature", "properties": { "LAYER": "TRMM Stations", "GM_TYPE": "Unknown Point Feature", "Station": "Ba'Issa (Bai)", "Name": "Ba'Issa", "Abbrev": "Bai", "LGA": "Kurmi", "STATE_low": "Taraba", "ECREEE": "Transitional tropical", "ECREEE2": 5, "KOPPEN": "Tropical Savannah", "KOPPEN2": "Aw", "OYEBANDE": "V", "a_2yr_": "103.42", "a_5yr_": "126.65", "a_10yr_": "143.77", "a_25yr_": "167.61", "a_50yr_": "187.04", "a_100yr_": "207.92", "Theta": "0.866", "Eta": "0.993", "L1": "109.48", "L2": "14.35", "L3": "-0.55", "Kappa_shap": "-0.354", "Lambda_sca": "18.42", "Psi_locati": "5.24", "STATE": "TARABA" }, "geometry": { "type": "Point", "coordinates": [ 10.63, 7.22 ] } },
{ "type": "Feature", "properties": { "LAYER": "TRMM Stations", "GM_TYPE": "Unknown Point Feature", "Station": "Bauchi (Bau)", "Name": "Bauchi", "Abbrev": "Bau", "LGA": "Bauchi", "STATE_low": "Bauchi", "ECREEE": "Pure tropical", "ECREEE2": 4, "KOPPEN": "Tropical Savannah", "KOPPEN2": "Aw", "OYEBANDE": "VIII", "a_2yr_": "74.11", "a_5yr_": "100.17", "a_10yr_": "119.36", "a_25yr_": "146.09", "a_50yr_": "167.87", "a_100yr_": "191.29", "Theta": "0.896", "Eta": "0.921", "L1": "80.91", "L2": "16.09", "L3": "2.9", "Kappa_shap": "0.016", "Lambda_sca": "20.65", "Psi_locati": "3.21", "STATE": "BAUCHI" }, "geometry": { "type": "Point", "coordinates": [ 9.82, 10.28 ] } },
{ "type": "Feature", "properties": { "LAYER": "TRMM Stations", "GM_TYPE": "Unknown Point Feature", "Station": "Bena (Bna)", "Name": "Bena", "Abbrev": "Bna", "LGA": "Wasagu\/Danko", "STATE_low": "Kebbi", "ECREEE": "Transitional tropical", "ECREEE2": 5, "KOPPEN": "Tropical Savannah", "KOPPEN2": "Aw", "OYEBANDE": "VIIa", "a_2yr_": "80.75", "a_5yr_": "106.44", "a_10yr_": "125.38", "a_25yr_": "151.74", "a_50yr_": "173.22", "a_100yr_": "196.32", "Theta": "0.434", "Eta": "0.921", "L1": "87.45", "L2": "15.87", "L3": "3.75", "Kappa_shap": "0.101", "Lambda_sca": "20.37", "Psi_locati": "3.59", "STATE": "KEBBI" }, "geometry": { "type": "Point", "coordinates": [ 5.94, 11.28 ] } },
{ "type": "Feature", "properties": { "LAYER": "TRMM Stations", "GM_TYPE": "Unknown Point Feature", "Station": "Benin City (Bni)", "Name": "Benin City", "Abbrev": "Bni", "LGA": "Ovia South-West", "STATE_low": "Edo", "ECREEE": "Transitional equatorial", "ECREEE2": 6, "KOPPEN": "Tropical Savannah", "KOPPEN2": "Aw", "OYEBANDE": "II", "a_2yr_": "82.42", "a_5yr_": "100.04", "a_10yr_": "113.02", "a_25yr_": "131.09", "a_50yr_": "145.82", "a_100yr_": "161.66", "Theta": "0.986", "Eta": "0.877", "L1": "87.02", "L2": "10.88", "L3": "1.47", "Kappa_shap": "-0.055", "Lambda_sca": "13.96", "Psi_locati": "5.53", "STATE": "EDO" }, "geometry": { "type": "Point", "coordinates": [ 5.1, 6.32 ] } },
{ "type": "Feature", "properties": { "LAYER": "TRMM Stations", "GM_TYPE": "Unknown Point Feature", "Station": "Bida (Bda)", "Name": "Bida", "Abbrev": "Bid", "LGA": "Bida", "STATE_low": "Niger", "ECREEE": "Transitional tropical", "ECREEE2": 5, "KOPPEN": "Tropical Savannah", "KOPPEN2": "Aw", "OYEBANDE": "IVa", "a_2yr_": "86.57", "a_5yr_": "106.55", "a_10yr_": "121.27", "a_25yr_": "141.77", "a_50yr_": "158.47", "a_100yr_": "176.43", "Theta": "0.516", "Eta": "0.985", "L1": "91.78", "L2": "12.34", "L3": "0.91", "Kappa_shap": "-0.156", "Lambda_sca": "15.84", "Psi_locati": "5.09", "STATE": "NIGER" }, "geometry": { "type": "Point", "coordinates": [ 6.02, 9.1 ] } },
{ "type": "Feature", "properties": { "LAYER": "TRMM Stations", "GM_TYPE": "Unknown Point Feature", "Station": "Birnin Kebbi (Bkb)", "Name": "Birnin Kebbi", "Abbrev": "Bkb", "LGA": "Birnin Kebbi", "STATE_low": "Kebbi", "ECREEE": "Semiarid tropical", "ECREEE2": 3, "KOPPEN": "Tropical Savannah", "KOPPEN2": "Aw", "OYEBANDE": "VIIa", "a_2yr_": "84.43", "a_5yr_": "113.55", "a_10yr_": "135", "a_25yr_": "164.87", "a_50yr_": "189.2", "a_100yr_": "215.37", "Theta": "0.988", "Eta": "0.943", "L1": "92.03", "L2": "17.98", "L3": "3.87", "Kappa_shap": "0.07", "Lambda_sca": "23.08", "Psi_locati": "3.28", "STATE": "KEBBI" }, "geometry": { "type": "Point", "coordinates": [ 4.22, 12.47 ] } },
{ "type": "Feature", "properties": { "LAYER": "TRMM Stations", "GM_TYPE": "Unknown Point Feature", "Station": "Biu (Biu)", "Name": "Biu", "Abbrev": "Biu", "LGA": "Biu", "STATE_low": "Borno", "ECREEE": "Pure tropical", "ECREEE2": 4, "KOPPEN": "Hot-Arid Plains", "KOPPEN2": "BSh", "OYEBANDE": "IX", "a_2yr_": "77.11", "a_5yr_": "103.44", "a_10yr_": "122.84", "a_25yr_": "149.85", "a_50yr_": "171.86", "a_100yr_": "195.52", "Theta": "0.678", "Eta": "0.985", "L1": "83.98", "L2": "16.26", "L3": "2.01", "Kappa_shap": "-0.074", "Lambda_sca": "20.87", "Psi_locati": "3.32", "STATE": "BORNO" }, "geometry": { "type": "Point", "coordinates": [ 12.19, 10.61 ] } },
{ "type": "Feature", "properties": { "LAYER": "TRMM Stations", "GM_TYPE": "Unknown Point Feature", "Station": "Calabar (Cal)", "Name": "Calabar", "Abbrev": "Cal", "LGA": "Calabar Municipal", "STATE_low": "Cross River", "ECREEE": "Transitional equatorial", "ECREEE2": 6, "KOPPEN": "Tropical Monsoon", "KOPPEN2": "Am", "OYEBANDE": "I", "a_2yr_": "113.34", "a_5yr_": "153.51", "a_10yr_": "183.11", "a_25yr_": "224.32", "a_50yr_": "257.91", "a_100yr_": "294.01", "Theta": "0.931", "Eta": "0.956", "L1": "123.82", "L2": "24.81", "L3": "5.44", "Kappa_shap": "0.076", "Lambda_sca": "31.84", "Psi_locati": "3.18", "STATE": "CROSS RIVER" }, "geometry": { "type": "Point", "coordinates": [ 8.35, 4.98 ] } },
{ "type": "Feature", "properties": { "LAYER": "TRMM Stations", "GM_TYPE": "Unknown Point Feature", "Station": "Dadinkowa (Dad)", "Name": "Dadinkowa", "Abbrev": "Dad", "LGA": "Doguwa", "STATE_low": "Kano", "ECREEE": "Transitional tropical", "ECREEE2": 5, "KOPPEN": "Tropical Savannah", "KOPPEN2": "Aw", "OYEBANDE": "VIIb", "a_2yr_": "75.34", "a_5yr_": "90.18", "a_10yr_": "101.13", "a_25yr_": "116.36", "a_50yr_": "128.77", "a_100yr_": "142.12", "Theta": "0.772", "Eta": "0.985", "L1": "79.21", "L2": "9.17", "L3": "1.71", "Kappa_shap": "0.026", "Lambda_sca": "11.77", "Psi_locati": "6.03", "STATE": "KANO" }, "geometry": { "type": "Point", "coordinates": [ 8.63, 10.69 ] } },
{ "type": "Feature", "properties": { "LAYER": "TRMM Stations", "GM_TYPE": "Unknown Point Feature", "Station": "Damaturu (Dam)", "Name": "Damaturu", "Abbrev": "Dam", "LGA": "Damaturu", "STATE_low": "Yobe", "ECREEE": "Semiarid tropical", "ECREEE2": 3, "KOPPEN": "Hot-Arid Plains", "KOPPEN2": "BSh", "OYEBANDE": "IX", "a_2yr_": "81.55", "a_5yr_": "108.41", "a_10yr_": "128.21", "a_25yr_": "155.77", "a_50yr_": "178.22", "a_100yr_": "202.37", "Theta": "0.774", "Eta": "0.992", "L1": "88.56", "L2": "16.59", "L3": "2.71", "Kappa_shap": "-0.01", "Lambda_sca": "21.29", "Psi_locati": "3.46", "STATE": "YOBE" }, "geometry": { "type": "Point", "coordinates": [ 11.97, 11.74 ] } },
{ "type": "Feature", "properties": { "LAYER": "TRMM Stations", "GM_TYPE": "Unknown Point Feature", "Station": "Dikwa (Dkw)", "Name": "Dikwa", "Abbrev": "Dik", "LGA": "Dikwa", "STATE_low": "Borno", "ECREEE": "Semiarid tropical", "ECREEE2": 3, "KOPPEN": "Hot-Arid Plains", "KOPPEN2": "BSh", "OYEBANDE": "IX", "a_2yr_": "9.1830", "a_5yr_": "1.2112", "a_10yr_": "1.4270", "a_25yr_": "1.7275", "a_50yr_": "1.9724", "a_100yr_": "2.2357", "Theta": "6.640", "Eta": "9.870", "L1": "9.9470", "L2": "1.809", "L3": "-1.80", "Kappa_shap": "-4.400", "Lambda_sca": "2.322", "Psi_locati": "3.58", "STATE": "BORNO" }, "geometry": { "type": "Point", "coordinates": [ 13.91, 12.03 ] } },
{ "type": "Feature", "properties": { "LAYER": "TRMM Stations", "GM_TYPE": "Unknown Point Feature", "Station": "Enugu (Enu)", "Name": "Enugu", "Abbrev": "Enu", "LGA": "Enugu East", "STATE_low": "Enugu", "ECREEE": "Transitional equatorial", "ECREEE2": 6, "KOPPEN": "Tropical Savannah", "KOPPEN2": "Aw", "OYEBANDE": "IVa", "a_2yr_": "109.55", "a_5yr_": "134.47", "a_10yr_": "152.83", "a_25yr_": "178.39", "a_50yr_": "199.23", "a_100yr_": "221.62", "Theta": "0.666", "Eta": "0.953", "L1": "116.05", "L2": "15.39", "L3": "2.39", "Kappa_shap": "-0.023", "Lambda_sca": "19.75", "Psi_locati": "5.17", "STATE": "ENUGU" }, "geometry": { "type": "Point", "coordinates": [ 7.57, 6.47 ] } },
{ "type": "Feature", "properties": { "LAYER": "TRMM Stations", "GM_TYPE": "Unknown Point Feature", "Station": "Geidem (Gei)", "Name": "Geidem", "Abbrev": "Gei", "LGA": "Geidam", "STATE_low": "Yobe", "ECREEE": "Semiarid tropical", "ECREEE2": 3, "KOPPEN": "Hot-Arid Plains", "KOPPEN2": "BSh", "OYEBANDE": "X", "a_2yr_": "68.06", "a_5yr_": "98.79", "a_10yr_": "121.44", "a_25yr_": "152.97", "a_50yr_": "178.66", "a_100yr_": "206.28", "Theta": "0.536", "Eta": "0.991", "L1": "76.08", "L2": "18.98", "L3": "6.18", "Kappa_shap": "0.23", "Lambda_sca": "24.36", "Psi_locati": "2.42", "STATE": "YOBE" }, "geometry": { "type": "Point", "coordinates": [ 11.93, 12.89 ] } },
{ "type": "Feature", "properties": { "LAYER": "TRMM Stations", "GM_TYPE": "Unknown Point Feature", "Station": "Gembu (Gem)", "Name": "Gembu", "Abbrev": "Gem", "LGA": "Sardauna", "STATE_low": "Taraba", "ECREEE": "Transitional tropical", "ECREEE2": 5, "KOPPEN": "Tropical Savannah", "KOPPEN2": "Aw", "OYEBANDE": "V", "a_2yr_": "67.55", "a_5yr_": "86.72", "a_10yr_": "100.85", "a_25yr_": "120.51", "a_50yr_": "136.54", "a_100yr_": "153.77", "Theta": "0.742", "Eta": "0.915", "L1": "72.55", "L2": "11.84", "L3": "4.08", "Kappa_shap": "0.256", "Lambda_sca": "15.2", "Psi_locati": "4.07", "STATE": "TARABA" }, "geometry": { "type": "Point", "coordinates": [ 11.26, 6.72 ] } },
{ "type": "Feature", "properties": { "LAYER": "TRMM Stations", "GM_TYPE": "Unknown Point Feature", "Station": "Gombe (Gom)", "Name": "Gombe", "Abbrev": "Gom", "LGA": "Gombe", "STATE_low": "Gombe", "ECREEE": "Pure tropical", "ECREEE2": 4, "KOPPEN": "Hot-Arid Plains", "KOPPEN2": "BSh", "OYEBANDE": "IX", "a_2yr_": "74.5", "a_5yr_": "95.84", "a_10yr_": "111.57", "a_25yr_": "133.46", "a_50yr_": "151.3", "a_100yr_": "170.48", "Theta": "0.98", "Eta": "0.979", "L1": "80.07", "L2": "13.18", "L3": "1.18", "Kappa_shap": "-0.13", "Lambda_sca": "16.92", "Psi_locati": "4.03", "STATE": "GOMBE" }, "geometry": { "type": "Point", "coordinates": [ 11.15, 10.28 ] } },
{ "type": "Feature", "properties": { "LAYER": "TRMM Stations", "GM_TYPE": "Unknown Point Feature", "Station": "Gummi (Gum)", "Name": "Gummi", "Abbrev": "Gum", "LGA": "Gummi", "STATE_low": "Zamfara", "ECREEE": "Pure tropical", "ECREEE2": 4, "KOPPEN": "Tropical Savannah", "KOPPEN2": "Aw", "OYEBANDE": "VIIa", "a_2yr_": "78.63", "a_5yr_": "96.31", "a_10yr_": "109.34", "a_25yr_": "127.48", "a_50yr_": "142.26", "a_100yr_": "158.15", "Theta": "0.501", "Eta": "0.993", "L1": "83.24", "L2": "10.92", "L3": "-0.16", "Kappa_shap": "-0.311", "Lambda_sca": "14.02", "Psi_locati": "5.24", "STATE": "ZAMFARA" }, "geometry": { "type": "Point", "coordinates": [ 5.13, 12.14 ] } },
{ "type": "Feature", "properties": { "LAYER": "TRMM Stations", "GM_TYPE": "Unknown Point Feature", "Station": "Gusau (Gus)", "Name": "Gusau", "Abbrev": "Gus", "LGA": "Bungudu", "STATE_low": "Zamfara", "ECREEE": "Pure tropical", "ECREEE2": 4, "KOPPEN": "Tropical Savannah", "KOPPEN2": "Aw", "OYEBANDE": "VIII", "a_2yr_": "98.82", "a_5yr_": "126.48", "a_10yr_": "146.86", "a_25yr_": "175.23", "a_50yr_": "198.35", "a_100yr_": "223.21", "Theta": "0.773", "Eta": "0.985", "L1": "106.04", "L2": "17.08", "L3": "2.61", "Kappa_shap": "-0.027", "Lambda_sca": "21.92", "Psi_locati": "4.13", "STATE": "ZAMFARA" }, "geometry": { "type": "Point", "coordinates": [ 6.7, 12.17 ] } },
{ "type": "Feature", "properties": { "LAYER": "TRMM Stations", "GM_TYPE": "Unknown Point Feature", "Station": "Hadejia (Had)", "Name": "Hadejia", "Abbrev": "Had", "LGA": "Auyo", "STATE_low": "Jigawa", "ECREEE": "Semiarid tropical", "ECREEE2": 3, "KOPPEN": "Hot-Arid Plains", "KOPPEN2": "BSh", "OYEBANDE": "X", "a_2yr_": "72.56", "a_5yr_": "92.39", "a_10yr_": "107.01", "a_25yr_": "127.35", "a_50yr_": "143.94", "a_100yr_": "161.76", "Theta": "0.375", "Eta": "0.985", "L1": "77.73", "L2": "12.25", "L3": "0.73", "Kappa_shap": "-0.18", "Lambda_sca": "15.72", "Psi_locati": "4.24", "STATE": "JIGAWA" }, "geometry": { "type": "Point", "coordinates": [ 10.04, 12.45 ] } },
{ "type": "Feature", "properties": { "LAYER": "TRMM Stations", "GM_TYPE": "Unknown Point Feature", "Station": "Ibadan (Ibd)", "Name": "Ibadan", "Abbrev": "Ibd", "LGA": "Ona ara", "STATE_low": "Oyo", "ECREEE": "Transitional equatorial", "ECREEE2": 6, "KOPPEN": "Tropical Savannah", "KOPPEN2": "Aw", "OYEBANDE": "III", "a_2yr_": "70.79", "a_5yr_": "87.93", "a_10yr_": "100.57", "a_25yr_": "118.16", "a_50yr_": "132.49", "a_100yr_": "147.91", "Theta": "0.3", "Eta": "0.889", "L1": "75.26", "L2": "10.59", "L3": "2.41", "Kappa_shap": "0.088", "Lambda_sca": "13.59", "Psi_locati": "4.83", "STATE": "OYO" }, "geometry": { "type": "Point", "coordinates": [ 3.98, 7.36 ] } },
{ "type": "Feature", "properties": { "LAYER": "TRMM Stations", "GM_TYPE": "Unknown Point Feature", "Station": "Ibi (Ibi)", "Name": "Ibi", "Abbrev": "Ibi", "LGA": "Ibi", "STATE_low": "Taraba", "ECREEE": "Transitional tropical", "ECREEE2": 5, "KOPPEN": "Tropical Savannah", "KOPPEN2": "Aw", "OYEBANDE": "IVb", "a_2yr_": "93.47", "a_5yr_": "116.27", "a_10yr_": "133.07", "a_25yr_": "156.46", "a_50yr_": "175.52", "a_100yr_": "196.01", "Theta": "0.645", "Eta": "0.987", "L1": "99.42", "L2": "14.08", "L3": "2.88", "Kappa_shap": "0.053", "Lambda_sca": "18.07", "Psi_locati": "4.8", "STATE": "TARABA" }, "geometry": { "type": "Point", "coordinates": [ 9.75, 8.18 ] } },
{ "type": "Feature", "properties": { "LAYER": "TRMM Stations", "GM_TYPE": "Unknown Point Feature", "Station": "Ijebu Ode (Ijb)", "Name": "Ijebu Ode", "Abbrev": "Ijb", "LGA": "Ijebu ode", "STATE_low": "Ogun", "ECREEE": "Transitional equatorial", "ECREEE2": 6, "KOPPEN": "Tropical Savannah", "KOPPEN2": "Aw", "OYEBANDE": "III", "a_2yr_": "108.97", "a_5yr_": "129.98", "a_10yr_": "145.47", "a_25yr_": "167.03", "a_50yr_": "184.6", "a_100yr_": "203.49", "Theta": "0.997", "Eta": "0.956", "L1": "114.45", "L2": "12.98", "L3": "1.81", "Kappa_shap": "-0.048", "Lambda_sca": "16.66", "Psi_locati": "6.17", "STATE": "OGUN" }, "geometry": { "type": "Point", "coordinates": [ 3.93, 6.83 ] } },
{ "type": "Feature", "properties": { "LAYER": "TRMM Stations", "GM_TYPE": "Unknown Point Feature", "Station": "Ikeja (Ikj)", "Name": "Ikeja", "Abbrev": "Ikj", "LGA": "Ikeja", "STATE_low": "Lagos", "ECREEE": "Transitional equatorial", "ECREEE2": 6, "KOPPEN": "Tropical Savannah", "KOPPEN2": "Aw", "OYEBANDE": "II", "a_2yr_": "91.56", "a_5yr_": "114.76", "a_10yr_": "131.86", "a_25yr_": "155.66", "a_50yr_": "175.06", "a_100yr_": "195.91", "Theta": "0.707", "Eta": "0.856", "L1": "97.61", "L2": "14.33", "L3": "4.83", "Kappa_shap": "0.245", "Lambda_sca": "18.39", "Psi_locati": "4.6", "STATE": "LAGOS" }, "geometry": { "type": "Point", "coordinates": [ 3.32, 6.58 ] } },
{ "type": "Feature", "properties": { "LAYER": "TRMM Stations", "GM_TYPE": "Unknown Point Feature", "Station": "Ikom (Ikm)", "Name": "Ikom", "Abbrev": "Ikm", "LGA": "Ikom", "STATE_low": "Cross River", "ECREEE": "Transitional tropical", "ECREEE2": 5, "KOPPEN": "Tropical Monsoon", "KOPPEN2": "Am", "OYEBANDE": "IVa", "a_2yr_": "106.39", "a_5yr_": "142.58", "a_10yr_": "169.24", "a_25yr_": "206.37", "a_50yr_": "236.62", "a_100yr_": "269.15", "Theta": "0.3", "Eta": "0.881", "L1": "115.83", "L2": "22.35", "L3": "7.26", "Kappa_shap": "0.228", "Lambda_sca": "28.69", "Psi_locati": "3.33", "STATE": "CROSS RIVER" }, "geometry": { "type": "Point", "coordinates": [ 8.72, 5.97 ] } },
{ "type": "Feature", "properties": { "LAYER": "TRMM Stations", "GM_TYPE": "Unknown Point Feature", "Station": "Illo (Ill)", "Name": "Illo", "Abbrev": "Ill", "LGA": "Bagudo", "STATE_low": "Kebbi", "ECREEE": "Pure tropical", "ECREEE2": 4, "KOPPEN": "Tropical Savannah", "KOPPEN2": "Aw", "OYEBANDE": "VIIa", "a_2yr_": "103.11", "a_5yr_": "129.02", "a_10yr_": "148.11", "a_25yr_": "174.69", "a_50yr_": "196.34", "a_100yr_": "219.63", "Theta": "0.995", "Eta": "0.987", "L1": "109.87", "L2": "16", "L3": "2.25", "Kappa_shap": "-0.046", "Lambda_sca": "20.54", "Psi_locati": "4.65", "STATE": "KEBBI" }, "geometry": { "type": "Point", "coordinates": [ 3.7, 11.55 ] } },
{ "type": "Feature", "properties": { "LAYER": "TRMM Stations", "GM_TYPE": "Unknown Point Feature", "Station": "Ilorin (Ilr)", "Name": "Ilorin", "Abbrev": "Ilr", "LGA": "Asa", "STATE_low": "Kwara", "ECREEE": "Transitional tropical", "ECREEE2": 5, "KOPPEN": "Tropical Savannah", "KOPPEN2": "Aw", "OYEBANDE": "IVa", "a_2yr_": "89.98", "a_5yr_": "118.09", "a_10yr_": "138.8", "a_25yr_": "167.63", "a_50yr_": "191.13", "a_100yr_": "216.4", "Theta": "0.646", "Eta": "0.982", "L1": "97.31", "L2": "17.36", "L3": "5.32", "Kappa_shap": "0.203", "Lambda_sca": "22.28", "Psi_locati": "3.66", "STATE": "KWARA" }, "geometry": { "type": "Point", "coordinates": [ 4.49, 8.44 ] } },
{ "type": "Feature", "properties": { "LAYER": "TRMM Stations", "GM_TYPE": "Unknown Point Feature", "Station": "Jos (Jos)", "Name": "Jos", "Abbrev": "Jos", "LGA": "Riyom", "STATE_low": "Plateau", "ECREEE": "Transitional tropical", "ECREEE2": 5, "KOPPEN": "Tropical Savannah", "KOPPEN2": "Aw", "OYEBANDE": "VIIb", "a_2yr_": "58.8", "a_5yr_": "83.06", "a_10yr_": "100.93", "a_25yr_": "125.81", "a_50yr_": "146.09", "a_100yr_": "167.89", "Theta": "0.602", "Eta": "0.987", "L1": "65.13", "L2": "14.98", "L3": "1.71", "Kappa_shap": "-0.089", "Lambda_sca": "19.23", "Psi_locati": "2.68", "STATE": "PLATEAU" }, "geometry": { "type": "Point", "coordinates": [ 8.87, 9.64 ] } },
{ "type": "Feature", "properties": { "LAYER": "TRMM Stations", "GM_TYPE": "Unknown Point Feature", "Station": "Kachia (Kac)", "Name": "Kachia", "Abbrev": "Kac", "LGA": "Kachia", "STATE_low": "Kaduna", "ECREEE": "Transitional tropical", "ECREEE2": 5, "KOPPEN": "Tropical Savannah", "KOPPEN2": "Aw", "OYEBANDE": "VIIb", "a_2yr_": "73.08", "a_5yr_": "92.93", "a_10yr_": "107.56", "a_25yr_": "127.92", "a_50yr_": "144.52", "a_100yr_": "162.36", "Theta": "0.807", "Eta": "0.95", "L1": "78.26", "L2": "12.26", "L3": "1.96", "Kappa_shap": "-0.016", "Lambda_sca": "15.74", "Psi_locati": "4.27", "STATE": "KADUNA" }, "geometry": { "type": "Point", "coordinates": [ 7.96, 9.85 ] } },
{ "type": "Feature", "properties": { "LAYER": "TRMM Stations", "GM_TYPE": "Unknown Point Feature", "Station": "Kaduna (Kad)", "Name": "Kaduna", "Abbrev": "Kad", "LGA": "Igabi", "STATE_low": "Kaduna", "ECREEE": "Transitional tropical", "ECREEE2": 5, "KOPPEN": "Tropical Savannah", "KOPPEN2": "Aw", "OYEBANDE": "VIIb", "a_2yr_": "72.86", "a_5yr_": "92.68", "a_10yr_": "107.28", "a_25yr_": "127.61", "a_50yr_": "144.18", "a_100yr_": "162", "Theta": "0.3", "Eta": "0.922", "L1": "78.03", "L2": "12.24", "L3": "1.33", "Kappa_shap": "-0.098", "Lambda_sca": "15.71", "Psi_locati": "4.26", "STATE": "KADUNA" }, "geometry": { "type": "Point", "coordinates": [ 7.32, 10.7 ] } },
{ "type": "Feature", "properties": { "LAYER": "TRMM Stations", "GM_TYPE": "Unknown Point Feature", "Station": "Kaiama (Kai)", "Name": "Kaiama", "Abbrev": "Kai", "LGA": "Kaiama", "STATE_low": "Kwara", "ECREEE": "Transitional tropical", "ECREEE2": 5, "KOPPEN": "Tropical Savannah", "KOPPEN2": "Aw", "OYEBANDE": "VIIa", "a_2yr_": "83.24", "a_5yr_": "102.9", "a_10yr_": "117.38", "a_25yr_": "137.55", "a_50yr_": "153.98", "a_100yr_": "171.65", "Theta": "0.525", "Eta": "0.951", "L1": "88.37", "L2": "12.14", "L3": "1.73", "Kappa_shap": "-0.043", "Lambda_sca": "15.58", "Psi_locati": "4.97", "STATE": "KWARA" }, "geometry": { "type": "Point", "coordinates": [ 3.94, 9.59 ] } },
{ "type": "Feature", "properties": { "LAYER": "TRMM Stations", "GM_TYPE": "Unknown Point Feature", "Station": "Kaltungo (Klt)", "Name": "Kaltungo", "Abbrev": "Kal", "LGA": "Kaltungo", "STATE_low": "Gombe", "ECREEE": "Pure tropical", "ECREEE2": 4, "KOPPEN": "Tropical Savannah", "KOPPEN2": "Aw", "OYEBANDE": "IX", "a_2yr_": "80.11", "a_5yr_": "104.09", "a_10yr_": "121.76", "a_25yr_": "146.36", "a_50yr_": "166.41", "a_100yr_": "187.97", "Theta": "0.87", "Eta": "0.99", "L1": "86.37", "L2": "14.81", "L3": "0.2", "Kappa_shap": "-0.261", "Lambda_sca": "19.01", "Psi_locati": "3.84", "STATE": "GOMBE" }, "geometry": { "type": "Point", "coordinates": [ 11.32, 9.81 ] } },
{ "type": "Feature", "properties": { "LAYER": "TRMM Stations", "GM_TYPE": "Unknown Point Feature", "Station": "Kano (KANO)", "Name": "Kano", "Abbrev": "Kan", "LGA": "Ungongo", "STATE_low": "Kano", "ECREEE": "Pure tropical", "ECREEE2": 4, "KOPPEN": "Hot-Arid Plains", "KOPPEN2": "BSh", "OYEBANDE": "VIII", "a_2yr_": "94.34", "a_5yr_": "129.69", "a_10yr_": "155.73", "a_25yr_": "191.99", "a_50yr_": "221.54", "a_100yr_": "253.31", "Theta": "0.803", "Eta": "0.988", "L1": "103.56", "L2": "21.83", "L3": "5.01", "Kappa_shap": "0.091", "Lambda_sca": "28.02", "Psi_locati": "2.99", "STATE": "KANO" }, "geometry": { "type": "Point", "coordinates": [ 8.53, 12.05 ] } },
{ "type": "Feature", "properties": { "LAYER": "TRMM Stations", "GM_TYPE": "Unknown Point Feature", "Station": "Katsina (Kat)", "Name": "Katsina", "Abbrev": "Kla", "LGA": "Batagarawa", "STATE_low": "Katsina", "ECREEE": "Semiarid tropical", "ECREEE2": 3, "KOPPEN": "Hot-Arid Plains", "KOPPEN2": "BSh", "OYEBANDE": "X", "a_2yr_": "87.54", "a_5yr_": "116.94", "a_10yr_": "138.61", "a_25yr_": "168.78", "a_50yr_": "193.36", "a_100yr_": "219.79", "Theta": "0.638", "Eta": "0.989", "L1": "95.21", "L2": "18.16", "L3": "5.86", "Kappa_shap": "0.225", "Lambda_sca": "23.31", "Psi_locati": "3.38", "STATE": "KATSINA" }, "geometry": { "type": "Point", "coordinates": [ 7.68, 13.02 ] } },
{ "type": "Feature", "properties": { "LAYER": "TRMM Stations", "GM_TYPE": "Unknown Point Feature", "Station": "Katsina Ala (Kla)", "Name": "Katsina Ala", "Abbrev": "Kat", "LGA": "Katsina Ala", "STATE_low": "Benue", "ECREEE": "Transitional tropical", "ECREEE2": 5, "KOPPEN": "Tropical Savannah", "KOPPEN2": "Aw", "OYEBANDE": "IVa", "a_2yr_": "97.56", "a_5yr_": "121.72", "a_10yr_": "139.52", "a_25yr_": "164.3", "a_50yr_": "184.5", "a_100yr_": "206.21", "Theta": "0.734", "Eta": "0.953", "L1": "103.86", "L2": "14.92", "L3": "2.84", "Kappa_shap": "0.032", "Lambda_sca": "19.15", "Psi_locati": "4.72", "STATE": "BENUE" }, "geometry": { "type": "Point", "coordinates": [ 9.29, 7.16 ] } },
{ "type": "Feature", "properties": { "LAYER": "TRMM Stations", "GM_TYPE": "Unknown Point Feature", "Station": "Kazaure (Kaz)", "Name": "Kazaure", "Abbrev": "Kaz", "LGA": "Kazaure", "STATE_low": "Jigawa", "ECREEE": "Semiarid tropical", "ECREEE2": 3, "KOPPEN": "Hot-Arid Plains", "KOPPEN2": "BSh", "OYEBANDE": "X", "a_2yr_": "81.19", "a_5yr_": "106.71", "a_10yr_": "125.51", "a_25yr_": "151.69", "a_50yr_": "173.03", "a_100yr_": "195.96", "Theta": "0.418", "Eta": "0.995", "L1": "87.85", "L2": "15.76", "L3": "4.48", "Kappa_shap": "0.171", "Lambda_sca": "20.23", "Psi_locati": "3.64", "STATE": "JIGAWA" }, "geometry": { "type": "Point", "coordinates": [ 8.41, 12.65 ] } },
{ "type": "Feature", "properties": { "LAYER": "TRMM Stations", "GM_TYPE": "Unknown Point Feature", "Station": "Kontagora (Kon)", "Name": "Kontagora", "Abbrev": "Kon", "LGA": "Kontagora", "STATE_low": "Niger", "ECREEE": "Transitional tropical", "ECREEE2": 5, "KOPPEN": "Tropical Savannah", "KOPPEN2": "Aw", "OYEBANDE": "VIIa", "a_2yr_": "85.97", "a_5yr_": "106.43", "a_10yr_": "121.49", "a_25yr_": "142.47", "a_50yr_": "159.57", "a_100yr_": "177.95", "Theta": "0.676", "Eta": "0.997", "L1": "91.31", "L2": "12.63", "L3": "0.45", "Kappa_shap": "-0.222", "Lambda_sca": "16.21", "Psi_locati": "4.93", "STATE": "NIGER" }, "geometry": { "type": "Point", "coordinates": [ 5.46, 10.39 ] } },
{ "type": "Feature", "properties": { "LAYER": "TRMM Stations", "GM_TYPE": "Unknown Point Feature", "Station": "Kuawa (Kua)", "Name": "Kuawa", "Abbrev": "Kua", "LGA": "Kukawa", "STATE_low": "Borno", "ECREEE": "Semiarid tropical", "ECREEE2": 3, "KOPPEN": "Hot-Arid Desert", "KOPPEN2": "BWh", "OYEBANDE": "IX", "a_2yr_": "74.12", "a_5yr_": "110.1", "a_10yr_": "136.61", "a_25yr_": "173.52", "a_50yr_": "203.6", "a_100yr_": "235.94", "Theta": "0.579", "Eta": "0.987", "L1": "83.51", "L2": "22.22", "L3": "5.95", "Kappa_shap": "0.147", "Lambda_sca": "28.52", "Psi_locati": "2.22", "STATE": "BORNO" }, "geometry": { "type": "Point", "coordinates": [ 13.67, 12.95 ] } },
{ "type": "Feature", "properties": { "LAYER": "TRMM Stations", "GM_TYPE": "Unknown Point Feature", "Station": "Lafia (Laf)", "Name": "Lafia", "Abbrev": "Laf", "LGA": "Lafia", "STATE_low": "Nassarawa", "ECREEE": "Transitional tropical", "ECREEE2": 5, "KOPPEN": "Tropical Savannah", "KOPPEN2": "Aw", "OYEBANDE": "IVa", "a_2yr_": "105.84", "a_5yr_": "136.8", "a_10yr_": "159.61", "a_25yr_": "191.37", "a_50yr_": "217.26", "a_100yr_": "245.08", "Theta": "0.794", "Eta": "0.987", "L1": "113.92", "L2": "19.12", "L3": "2.95", "Kappa_shap": "-0.025", "Lambda_sca": "24.54", "Psi_locati": "3.94", "STATE": "NASSARAWA" }, "geometry": { "type": "Point", "coordinates": [ 8.53, 8.55 ] } },
{ "type": "Feature", "properties": { "LAYER": "TRMM Stations", "GM_TYPE": "Unknown Point Feature", "Station": "Langtang (Lan)", "Name": "Langtang", "Abbrev": "Lan", "LGA": "Langtang North", "STATE_low": "Plateau", "ECREEE": "Pure tropical", "ECREEE2": 4, "KOPPEN": "Tropical Savannah", "KOPPEN2": "Aw", "OYEBANDE": "IVa", "a_2yr_": "93.14", "a_5yr_": "119.28", "a_10yr_": "138.53", "a_25yr_": "165.34", "a_50yr_": "187.19", "a_100yr_": "210.68", "Theta": "0.636", "Eta": "0.986", "L1": "99.96", "L2": "16.14", "L3": "-0.54", "Kappa_shap": "-0.345", "Lambda_sca": "20.72", "Psi_locati": "4.12", "STATE": "PLATEAU" }, "geometry": { "type": "Point", "coordinates": [ 9.8, 9.15 ] } },
{ "type": "Feature", "properties": { "LAYER": "TRMM Stations", "GM_TYPE": "Unknown Point Feature", "Station": "Lokoja (Lok)", "Name": "Lokoja", "Abbrev": "Lok", "LGA": "Lokoja", "STATE_low": "Kogi", "ECREEE": "Transitional tropical", "ECREEE2": 5, "KOPPEN": "Tropical Savannah", "KOPPEN2": "Aw", "OYEBANDE": "VI", "a_2yr_": "112.71", "a_5yr_": "156.25", "a_10yr_": "188.33", "a_25yr_": "233", "a_50yr_": "269.4", "a_100yr_": "308.53", "Theta": "0.998", "Eta": "0.981", "L1": "124.07", "L2": "26.89", "L3": "5.87", "Kappa_shap": "0.074", "Lambda_sca": "34.51", "Psi_locati": "2.89", "STATE": "KOGI" }, "geometry": { "type": "Point", "coordinates": [ 6.73, 7.8 ] } },
{ "type": "Feature", "properties": { "LAYER": "TRMM Stations", "GM_TYPE": "Unknown Point Feature", "Station": "Magagindoke (Mag)", "Name": "Magagindoke", "Abbrev": "Mag", "LGA": "Sabon Birni", "STATE_low": "Sokoto", "ECREEE": "Semiarid tropical", "ECREEE2": 3, "KOPPEN": "Hot-Arid Plains", "KOPPEN2": "BSh", "OYEBANDE": "VIII", "a_2yr_": "70.71", "a_5yr_": "90.44", "a_10yr_": "104.97", "a_25yr_": "125.2", "a_50yr_": "141.69", "a_100yr_": "159.41", "Theta": "0.323", "Eta": "0.981", "L1": "75.86", "L2": "12.18", "L3": "-0.58", "Kappa_shap": "-0.372", "Lambda_sca": "15.63", "Psi_locati": "4.15", "STATE": "SOKOTO" }, "geometry": { "type": "Point", "coordinates": [ 6.32, 13.56 ] } },
{ "type": "Feature", "properties": { "LAYER": "TRMM Stations", "GM_TYPE": "Unknown Point Feature", "Station": "Maiduguri (Mai)", "Name": "Maiduguri", "Abbrev": "Mai", "LGA": "Maiduguri", "STATE_low": "Borno", "ECREEE": "Semiarid tropical", "ECREEE2": 3, "KOPPEN": "Hot-Arid Plains", "KOPPEN2": "BSh", "OYEBANDE": "IX", "a_2yr_": "81.57", "a_5yr_": "102.55", "a_10yr_": "118.01", "a_25yr_": "139.54", "a_50yr_": "157.08", "a_100yr_": "175.94", "Theta": "0.712", "Eta": "0.982", "L1": "87.04", "L2": "12.96", "L3": "0.18", "Kappa_shap": "-0.26", "Lambda_sca": "16.63", "Psi_locati": "4.53", "STATE": "BORNO" }, "geometry": { "type": "Point", "coordinates": [ 13.08, 11.85 ] } },
{ "type": "Feature", "properties": { "LAYER": "TRMM Stations", "GM_TYPE": "Unknown Point Feature", "Station": "Makurdi (Mak)", "Name": "Makurdi", "Abbrev": "Mkd", "LGA": "Markurdi", "STATE_low": "Benue", "ECREEE": "Transitional tropical", "ECREEE2": 5, "KOPPEN": "Tropical Savannah", "KOPPEN2": "Aw", "OYEBANDE": "IVa", "a_2yr_": "99.19", "a_5yr_": "122.64", "a_10yr_": "139.92", "a_25yr_": "163.97", "a_50yr_": "183.57", "a_100yr_": "204.64", "Theta": "0.58", "Eta": "0.987", "L1": "105.31", "L2": "14.48", "L3": "0.75", "Kappa_shap": "-0.194", "Lambda_sca": "18.59", "Psi_locati": "4.96", "STATE": "BENUE" }, "geometry": { "type": "Point", "coordinates": [ 8.61, 7.7 ] } },
{ "type": "Feature", "properties": { "LAYER": "TRMM Stations", "GM_TYPE": "Unknown Point Feature", "Station": "Malumfashi (Mal)", "Name": "Malumfashi", "Abbrev": "Mal", "LGA": "Malumfashi", "STATE_low": "Katsina", "ECREEE": "Pure tropical", "ECREEE2": 4, "KOPPEN": "Tropical Savannah", "KOPPEN2": "Aw", "OYEBANDE": "VIII", "a_2yr_": "84.3", "a_5yr_": "107.89", "a_10yr_": "125.27", "a_25yr_": "149.47", "a_50yr_": "169.19", "a_100yr_": "190.4", "Theta": "0.352", "Eta": "0.986", "L1": "90.45", "L2": "14.57", "L3": "1.88", "Kappa_shap": "-0.065", "Lambda_sca": "18.7", "Psi_locati": "4.13", "STATE": "KATSINA" }, "geometry": { "type": "Point", "coordinates": [ 7.62, 11.79 ] } },
{ "type": "Feature", "properties": { "LAYER": "TRMM Stations", "GM_TYPE": "Unknown Point Feature", "Station": "Minna (Mna)", "Name": "Minna", "Abbrev": "Mna", "LGA": "Chanchaga", "STATE_low": "Niger", "ECREEE": "Transitional tropical", "ECREEE2": 5, "KOPPEN": "Tropical Savannah", "KOPPEN2": "Aw", "OYEBANDE": "VI", "a_2yr_": "83.16", "a_5yr_": "112.56", "a_10yr_": "134.23", "a_25yr_": "164.4", "a_50yr_": "188.98", "a_100yr_": "215.41", "Theta": "0.3", "Eta": "0.986", "L1": "90.83", "L2": "18.16", "L3": "1.18", "Kappa_shap": "0.643", "Lambda_sca": "23.31", "Psi_locati": "3.19", "STATE": "NIGER" }, "geometry": { "type": "Point", "coordinates": [ 6.53, 9.62 ] } },
{ "type": "Feature", "properties": { "LAYER": "TRMM Stations", "GM_TYPE": "Unknown Point Feature", "Station": "Mokwa (Mkw)", "Name": "Mokwa", "Abbrev": "Mok", "LGA": "Mokwa", "STATE_low": "Niger", "ECREEE": "Transitional tropical", "ECREEE2": 5, "KOPPEN": "Tropical Savannah", "KOPPEN2": "Aw", "OYEBANDE": "VIIa", "a_2yr_": "97.08", "a_5yr_": "118.5", "a_10yr_": "134.29", "a_25yr_": "156.26", "a_50yr_": "174.17", "a_100yr_": "193.43", "Theta": "0.738", "Eta": "0.99", "L1": "102.67", "L2": "13.23", "L3": "0.91", "Kappa_shap": "-0.165", "Lambda_sca": "16.98", "Psi_locati": "5.34", "STATE": "NIGER" }, "geometry": { "type": "Point", "coordinates": [ 5.05, 9.28 ] } },
{ "type": "Feature", "properties": { "LAYER": "TRMM Stations", "GM_TYPE": "Unknown Point Feature", "Station": "Mubi (Mbi)", "Name": "Mubi", "Abbrev": "Mub", "LGA": "Mubi North", "STATE_low": "Adamawa", "ECREEE": "Pure tropical", "ECREEE2": 4, "KOPPEN": "Hot-Arid Plains", "KOPPEN2": "BSh", "OYEBANDE": "IX", "a_2yr_": "80.74", "a_5yr_": "104.08", "a_10yr_": "121.27", "a_25yr_": "145.2", "a_50yr_": "164.71", "a_100yr_": "185.68", "Theta": "0.8", "Eta": "0.932", "L1": "86.83", "L2": "14.41", "L3": "1.42", "Kappa_shap": "-0.115", "Lambda_sca": "18.5", "Psi_locati": "3.99", "STATE": "ADAMAWA" }, "geometry": { "type": "Point", "coordinates": [ 13.26, 10.25 ] } },
{ "type": "Feature", "properties": { "LAYER": "TRMM Stations", "GM_TYPE": "Unknown Point Feature", "Station": "Mutum Mbiyu (Mut)", "Name": "Mutum Mbiyu", "Abbrev": "Mut", "LGA": "Gassol", "STATE_low": "Taraba", "ECREEE": "Transitional tropical", "ECREEE2": 5, "KOPPEN": "Tropical Savannah", "KOPPEN2": "Aw", "OYEBANDE": "IVb", "a_2yr_": "104.85", "a_5yr_": "144.67", "a_10yr_": "174.01", "a_25yr_": "214.85", "a_50yr_": "248.14", "a_100yr_": "283.93", "Theta": "0.709", "Eta": "0.992", "L1": "115.24", "L2": "24.59", "L3": "1.98", "Kappa_shap": "-0.145", "Lambda_sca": "31.56", "Psi_locati": "2.95", "STATE": "TARABA" }, "geometry": { "type": "Point", "coordinates": [ 10.78, 8.63 ] } },
{ "type": "Feature", "properties": { "LAYER": "TRMM Stations", "GM_TYPE": "Unknown Point Feature", "Station": "Nguru (Ngu)", "Name": "Nguru", "Abbrev": "Ngu", "LGA": "Nguru", "STATE_low": "Yobe", "ECREEE": "Semiarid tropical", "ECREEE2": 3, "KOPPEN": "Hot-Arid Plains", "KOPPEN2": "BSh", "OYEBANDE": "X", "a_2yr_": "69.89", "a_5yr_": "90.6", "a_10yr_": "105.86", "a_25yr_": "127.1", "a_50yr_": "144.41", "a_100yr_": "163.03", "Theta": "0.739", "Eta": "0.986", "L1": "75.29", "L2": "12.79", "L3": "0.99", "Kappa_shap": "-0.15", "Lambda_sca": "16.42", "Psi_locati": "3.88", "STATE": "YOBE" }, "geometry": { "type": "Point", "coordinates": [ 10.47, 12.88 ] } },
{ "type": "Feature", "properties": { "LAYER": "TRMM Stations", "GM_TYPE": "Unknown Point Feature", "Station": "Onitsha (Oni)", "Name": "Onitsha", "Abbrev": "Oni", "LGA": "Onitsha South", "STATE_low": "Anambra", "ECREEE": "Transitional equatorial", "ECREEE2": 6, "KOPPEN": "Tropical Savannah", "KOPPEN2": "Aw", "OYEBANDE": "III", "a_2yr_": "107.24", "a_5yr_": "135.41", "a_10yr_": "156.17", "a_25yr_": "185.08", "a_50yr_": "208.63", "a_100yr_": "233.95", "Theta": "0.997", "Eta": "0.989", "L1": "114.59", "L2": "17.4", "L3": "1.21", "Kappa_shap": "-0.163", "Lambda_sca": "22.33", "Psi_locati": "4.43", "STATE": "ANAMBRA" }, "geometry": { "type": "Point", "coordinates": [ 6.78, 6.15 ] } },
{ "type": "Feature", "properties": { "LAYER": "TRMM Stations", "GM_TYPE": "Unknown Point Feature", "Station": "Oshogbo (Osh)", "Name": "Oshogbo", "Abbrev": "Osh", "LGA": "Egbedore", "STATE_low": "Osun", "ECREEE": "Transitional equatorial", "ECREEE2": 6, "KOPPEN": "Tropical Savannah", "KOPPEN2": "Aw", "OYEBANDE": "III", "a_2yr_": "94.53", "a_5yr_": "114.45", "a_10yr_": "129.13", "a_25yr_": "149.56", "a_50yr_": "166.21", "a_100yr_": "184.11", "Theta": "0.93", "Eta": "0.958", "L1": "99.73", "L2": "12.3", "L3": "2.76", "Kappa_shap": "0.083", "Lambda_sca": "15.79", "Psi_locati": "5.61", "STATE": "OSUN" }, "geometry": { "type": "Point", "coordinates": [ 4.48, 7.78 ] } },
{ "type": "Feature", "properties": { "LAYER": "TRMM Stations", "GM_TYPE": "Unknown Point Feature", "Station": "Owerri (Owe)", "Name": "Owerri Lmo", "Abbrev": "Owe", "LGA": "Ngor Okpala", "STATE_low": "Imo", "ECREEE": "Transitional equatorial", "ECREEE2": 6, "KOPPEN": "Tropical Monsoon", "KOPPEN2": "Am", "OYEBANDE": "I", "a_2yr_": "107.15", "a_5yr_": "139.88", "a_10yr_": "163.99", "a_25yr_": "197.56", "a_50yr_": "224.92", "a_100yr_": "254.33", "Theta": "0.952", "Eta": "0.888", "L1": "115.69", "L2": "20.21", "L3": "5.87", "Kappa_shap": "0.18", "Lambda_sca": "25.94", "Psi_locati": "3.76", "STATE": "IMO" }, "geometry": { "type": "Point", "coordinates": [ 7.2, 5.42 ] } },
{ "type": "Feature", "properties": { "LAYER": "TRMM Stations", "GM_TYPE": "Unknown Point Feature", "Station": "Port Harcourt (Phc)", "Name": "Port Harcourt", "Abbrev": "Phc", "LGA": "Ikwerre", "STATE_low": "Rivers", "ECREEE": "Transitional equatorial", "ECREEE2": 6, "KOPPEN": "Tropical Monsoon", "KOPPEN2": "Am", "OYEBANDE": "I", "a_2yr_": "126.95", "a_5yr_": "162.91", "a_10yr_": "189.41", "a_25yr_": "226.3", "a_50yr_": "256.37", "a_100yr_": "288.69", "Theta": "0.916", "Eta": "0.917", "L1": "136.33", "L2": "22.21", "L3": "3.52", "Kappa_shap": "-0.018", "Lambda_sca": "28.51", "Psi_locati": "4.08", "STATE": "RIVERS" }, "geometry": { "type": "Point", "coordinates": [ 6.95, 5.02 ] } },
{ "type": "Feature", "properties": { "LAYER": "TRMM Stations", "GM_TYPE": "Unknown Point Feature", "Station": "Potiskum (Pot)", "Name": "Potiskum", "Abbrev": "Pot", "LGA": "Potiskum", "STATE_low": "Yobe", "ECREEE": "Semiarid tropical", "ECREEE2": 3, "KOPPEN": "Hot-Arid Plains", "KOPPEN2": "BSh", "OYEBANDE": "IX", "a_2yr_": "84.46", "a_5yr_": "109.54", "a_10yr_": "128.02", "a_25yr_": "153.75", "a_50yr_": "174.72", "a_100yr_": "197.26", "Theta": "0.707", "Eta": "0.986", "L1": "91", "L2": "15.49", "L3": "1.48", "Kappa_shap": "-0.12", "Lambda_sca": "19.88", "Psi_locati": "3.87", "STATE": "YOBE" }, "geometry": { "type": "Point", "coordinates": [ 11.03, 11.7 ] } },
{ "type": "Feature", "properties": { "LAYER": "TRMM Stations", "GM_TYPE": "Unknown Point Feature", "Station": "Shaki (Shk)", "Name": "Shaki", "Abbrev": "Shk", "LGA": "Saki West", "STATE_low": "Oyo", "ECREEE": "Transitional tropical", "ECREEE2": 5, "KOPPEN": "Tropical Savannah", "KOPPEN2": "Aw", "OYEBANDE": "IVa", "a_2yr_": "96.76", "a_5yr_": "122.25", "a_10yr_": "141.03", "a_25yr_": "167.17", "a_50yr_": "188.48", "a_100yr_": "211.39", "Theta": "0.992", "Eta": "0.973", "L1": "103.41", "L2": "15.74", "L3": "2.69", "Kappa_shap": "0.002", "Lambda_sca": "20.2", "Psi_locati": "4.42", "STATE": "OYO" }, "geometry": { "type": "Point", "coordinates": [ 3.38, 8.67 ] } },
{ "type": "Feature", "properties": { "LAYER": "TRMM Stations", "GM_TYPE": "Unknown Point Feature", "Station": "Sokoto (Sok)", "Name": "Sokoto", "Abbrev": "Sok", "LGA": "Bodinga", "STATE_low": "Sokoto", "ECREEE": "Semiarid tropical", "ECREEE2": 3, "KOPPEN": "Hot-Arid Plains", "KOPPEN2": "BSh", "OYEBANDE": "VIIa", "a_2yr_": "89.49", "a_5yr_": "111.12", "a_10yr_": "127.06", "a_25yr_": "149.25", "a_50yr_": "167.33", "a_100yr_": "186.78", "Theta": "0.705", "Eta": "0.994", "L1": "95.13", "L2": "13.36", "L3": "-0.42", "Kappa_shap": "-0.342", "Lambda_sca": "17.15", "Psi_locati": "4.84", "STATE": "SOKOTO" }, "geometry": { "type": "Point", "coordinates": [ 5.21, 12.92 ] } },
{ "type": "Feature", "properties": { "LAYER": "TRMM Stations", "GM_TYPE": "Unknown Point Feature", "Station": "Tungo (Tun)", "Name": "Tungo", "Abbrev": "Tun", "LGA": "Teungo", "STATE_low": "Adamawa", "ECREEE": "Transitional tropical", "ECREEE2": 5, "KOPPEN": "Tropical Savannah", "KOPPEN2": "Aw", "OYEBANDE": "V", "a_2yr_": "76.98", "a_5yr_": "100.25", "a_10yr_": "117.39", "a_25yr_": "141.26", "a_50yr_": "160.71", "a_100yr_": "181.63", "Theta": "0.463", "Eta": "0.951", "L1": "83.05", "L2": "14.37", "L3": "1.72", "Kappa_shap": "-0.08", "Lambda_sca": "18.44", "Psi_locati": "3.8", "STATE": "ADAMAWA" }, "geometry": { "type": "Point", "coordinates": [ 12.05, 8.11 ] } },
{ "type": "Feature", "properties": { "LAYER": "TRMM Stations", "GM_TYPE": "Unknown Point Feature", "Station": "Umuahia (Umh)", "Name": "Umuahia", "Abbrev": "Umu", "LGA": "Umuahia South", "STATE_low": "Abia", "ECREEE": "Transitional equatorial", "ECREEE2": 6, "KOPPEN": "Tropical Monsoon", "KOPPEN2": "Am", "OYEBANDE": "I", "a_2yr_": "142.15", "a_5yr_": "178.94", "a_10yr_": "206.05", "a_25yr_": "243.79", "a_50yr_": "274.54", "a_100yr_": "307.61", "Theta": "0.997", "Eta": "0.983", "L1": "151.75", "L2": "22.72", "L3": "5.51", "Kappa_shap": "0.11", "Lambda_sca": "29.16", "Psi_locati": "4.5", "STATE": "ABIA" }, "geometry": { "type": "Point", "coordinates": [ 7.5, 5.51 ] } },
{ "type": "Feature", "properties": { "LAYER": "TRMM Stations", "GM_TYPE": "Unknown Point Feature", "Station": "Uromi (Uro)", "Name": "Uromi", "Abbrev": "Uro", "LGA": "Esan North-East", "STATE_low": "Edo", "ECREEE": "Transitional equatorial", "ECREEE2": 6, "KOPPEN": "Tropical Savannah", "KOPPEN2": "Aw", "OYEBANDE": "IVa", "a_2yr_": "92.4", "a_5yr_": "115.82", "a_10yr_": "133.07", "a_25yr_": "157.09", "a_50yr_": "176.66", "a_100yr_": "197.7", "Theta": "0.959", "Eta": "0.932", "L1": "98.51", "L2": "14.46", "L3": "3.77", "Kappa_shap": "0.137", "Lambda_sca": "18.56", "Psi_locati": "4.6", "STATE": "EDO" }, "geometry": { "type": "Point", "coordinates": [ 6.32, 6.71 ] } },
{ "type": "Feature", "properties": { "LAYER": "TRMM Stations", "GM_TYPE": "Unknown Point Feature", "Station": "Uyo (Uyo)", "Name": "Uyo", "Abbrev": "Uyo", "LGA": "Abak", "STATE_low": "Akwa Ibom", "ECREEE": "Transitional equatorial", "ECREEE2": 6, "KOPPEN": "Tropical Monsoon", "KOPPEN2": "Am", "OYEBANDE": "I", "a_2yr_": "118.1", "a_5yr_": "156.67", "a_10yr_": "185.09", "a_25yr_": "224.65", "a_50yr_": "256.9", "a_100yr_": "291.56", "Theta": "0.975", "Eta": "0.908", "L1": "128.16", "L2": "23.82", "L3": "4.03", "Kappa_shap": "-0.001", "Lambda_sca": "30.57", "Psi_locati": "3.49", "STATE": "AKWA IBOM" }, "geometry": { "type": "Point", "coordinates": [ 7.82, 4.97 ] } },
{ "type": "Feature", "properties": { "LAYER": "TRMM Stations", "GM_TYPE": "Unknown Point Feature", "Station": "Warri (War)", "Name": "Warri", "Abbrev": "War", "LGA": "Warri South", "STATE_low": "Delta", "ECREEE": "Transitional equatorial", "ECREEE2": 6, "KOPPEN": "Tropical Monsoon", "KOPPEN2": "Am", "OYEBANDE": "II", "a_2yr_": "109.72", "a_5yr_": "143.69", "a_10yr_": "168.72", "a_25yr_": "203.57", "a_50yr_": "231.97", "a_100yr_": "262.5", "Theta": "0.903", "Eta": "0.871", "L1": "118.58", "L2": "20.98", "L3": "7.67", "Kappa_shap": "0.284", "Lambda_sca": "26.93", "Psi_locati": "3.7", "STATE": "DELTA" }, "geometry": { "type": "Point", "coordinates": [ 5.73, 5.52 ] } },
{ "type": "Feature", "properties": { "LAYER": "TRMM Stations", "GM_TYPE": "Unknown Point Feature", "Station": "Yakka (Yak)", "Name": "Yakka", "Abbrev": "Yak", "LGA": "Gudu", "STATE_low": "Sokoto", "ECREEE": "Semiarid tropical", "ECREEE2": 3, "KOPPEN": "Hot-Arid Plains", "KOPPEN2": "BSh", "OYEBANDE": "VIIa", "a_2yr_": "72.48", "a_5yr_": "94.39", "a_10yr_": "110.54", "a_25yr_": "133.01", "a_50yr_": "151.32", "a_100yr_": "171.01", "Theta": "0.802", "Eta": "0.989", "L1": "78.2", "L2": "13.53", "L3": "1.87", "Kappa_shap": "-0.05", "Lambda_sca": "17.37", "Psi_locati": "3.8", "STATE": "SOKOTO" }, "geometry": { "type": "Point", "coordinates": [ 4.37, 13.34 ] } },
{ "type": "Feature", "properties": { "LAYER": "TRMM Stations", "GM_TYPE": "Unknown Point Feature", "Station": "Yelwa (Yel)", "Name": "Yelwa", "Abbrev": "Yel", "LGA": "Yauri", "STATE_low": "Kebbi", "ECREEE": "Transitional tropical", "ECREEE2": 5, "KOPPEN": "Tropical Savannah", "KOPPEN2": "Aw", "OYEBANDE": "VIIa", "a_2yr_": "79.05", "a_5yr_": "96.42", "a_10yr_": "109.22", "a_25yr_": "127.05", "a_50yr_": "141.57", "a_100yr_": "157.19", "Theta": "0.502", "Eta": "0.988", "L1": "83.58", "L2": "10.73", "L3": "1.69", "Kappa_shap": "-0.02", "Lambda_sca": "13.77", "Psi_locati": "5.37", "STATE": "KEBBI" }, "geometry": { "type": "Point", "coordinates": [ 4.75, 10.88 ] } },
{ "type": "Feature", "properties": { "LAYER": "TRMM Stations", "GM_TYPE": "Unknown Point Feature", "Station": "Yenogoa (Yen)", "Name": "Yenogoa", "Abbrev": "Yen", "LGA": "Yenegoa", "STATE_low": "Bayelsa", "ECREEE": "Transitional equatorial", "ECREEE2": 6, "KOPPEN": "Tropical Monsoon", "KOPPEN2": "Am", "OYEBANDE": "I", "a_2yr_": "105.97", "a_5yr_": "129.04", "a_10yr_": "146.05", "a_25yr_": "169.72", "a_50yr_": "189.01", "a_100yr_": "209.74", "Theta": "0.774", "Eta": "0.889", "L1": "111.99", "L2": "14.25", "L3": "2.43", "Kappa_shap": "0.001", "Lambda_sca": "18.29", "Psi_locati": "5.42", "STATE": "BAYELSA" }, "geometry": { "type": "Point", "coordinates": [ 6.29, 4.92 ] } },
{ "type": "Feature", "properties": { "LAYER": "TRMM Stations", "GM_TYPE": "Unknown Point Feature", "Station": "Yola (Yol)", "Name": "Yola", "Abbrev": "Yol", "LGA": "Yola South", "STATE_low": "Adamawa", "ECREEE": "Pure tropical", "ECREEE2": 4, "KOPPEN": "Tropical Savannah", "KOPPEN2": "Aw", "OYEBANDE": "IVb", "a_2yr_": "82.94", "a_5yr_": "113.63", "a_10yr_": "136.24", "a_25yr_": "167.72", "a_50yr_": "193.37", "a_100yr_": "220.95", "Theta": "0.426", "Eta": "0.995", "L1": "90.95", "L2": "18.95", "L3": "2.07", "Kappa_shap": "-0.097", "Lambda_sca": "24.32", "Psi_locati": "3.04", "STATE": "ADAMAWA" }, "geometry": { "type": "Point", "coordinates": [ 12.43, 9.26 ] } }
]
}
